OBJECT_NAME,OBJECT_ID,EPOCH,MEAN_MOTION,ECCENTRICITY,INCLINATION,RA_OF_ASC_NODE,ARG_OF_PERICENTER,MEAN_ANOMALY,EPHEMERIS_TYPE,CLASSIFICATION_TYPE,NORAD_CAT_ID,ELEMENT_SET_NO,REV_AT_EPOCH,BSTAR,MEAN_MOTION_DOT,MEAN_MOTION_DDOT
ZHIHUI TIANWANG-1 01B,2024-087B,2026-06-07T03:51:48.919104,2.00563035,.00262733,53.1271,170.9927,207.3026,152.5950,0,U,59706,999,1475,0,.95E-6,0
STARLINK-11107 [DTC],2024-088A,2026-06-08T11:07:43.249728,15.69702395,.000106,53.1596,238.4835,88.9493,271.1646,0,U,59708,999,12051,.21981E-4,.2074E-4,0
STARLINK-11088 [DTC],2024-088B,2026-06-08T12:25:25.582080,15.69701408,.0001057,53.1567,238.8281,69.4662,290.6469,0,U,59709,999,12053,-.30531E-4,-.4284E-4,0
STARLINK-11092 [DTC],2024-088C,2026-06-08T12:18:21.500640,15.69691910,.0001011,53.1593,238.7938,77.1768,282.9363,0,U,59710,999,12053,.34713E-4,.3616E-4,0
STARLINK-11082 [DTC],2024-088D,2026-06-08T12:11:17.714688,15.69703031,.0000713,53.1579,238.7594,69.2938,290.8156,0,U,59711,999,12053,.20979E-4,.1954E-4,0
STARLINK-11108 [DTC],2024-088E,2026-06-08T12:04:14.149920,15.69704786,.0001084,53.1571,238.7246,73.9860,286.1277,0,U,59712,999,12053,.31781E-4,.3262E-4,0
STARLINK-11100 [DTC],2024-088F,2026-06-08T11:57:09.794592,15.69706743,.0000832,53.1579,238.6956,121.4760,238.6339,0,U,59713,999,12053,.21996E-4,.2077E-4,0
STARLINK-11094 [DTC],2024-088G,2026-06-08T11:50:06.522720,15.69708675,.0001183,53.1578,238.6696,84.1813,275.9340,0,U,59714,999,12053,.47458E-4,.5164E-4,0
STARLINK-11101 [DTC],2024-088H,2026-06-08T11:35:58.397856,15.69703197,.0000922,53.1598,238.5986,85.0915,275.0208,0,U,59715,999,12053,.20326E-4,.1874E-4,0
STARLINK-11099 [DTC],2024-088J,2026-06-08T11:43:02.205408,15.69705727,.0001045,53.1590,238.6296,100.2105,259.9031,0,U,59716,999,12053,.21988E-4,.2076E-4,0
STARLINK-11084 [DTC],2024-088K,2026-06-08T11:28:55.603776,15.69687437,.0001281,53.1602,238.5662,81.4576,278.6587,0,U,59717,999,12053,.11568E-5,-.449E-5,0
STARLINK-11103 [DTC],2024-088L,2026-06-08T11:21:51.636384,15.69696760,.0002241,53.1612,238.5320,42.8165,317.3027,0,U,59718,999,12053,-.11276E-4,-.1956E-4,0
STARLINK-11096 [DTC],2024-088M,2026-06-08T12:32:29.584032,15.69694776,.0000981,53.1586,238.8549,97.4441,262.6689,0,U,59719,999,12053,.17433E-4,.1523E-4,0
STARLINK-11095 [DTC],2024-088N,2026-06-08T11:14:46.902624,15.69699341,.000086,53.1586,238.4991,120.1479,239.9624,0,U,59720,999,12053,.22562E-4,.2145E-4,0
STARLINK-31834,2024-088P,2026-06-08T11:54:38.837376,15.31698809,.0001082,53.1635,78.2254,90.9011,269.2114,0,U,59721,999,11776,-.11346E-4,-.717E-5,0
STARLINK-31843,2024-088Q,2026-06-08T12:01:22.475712,15.31810659,.0001258,53.1607,78.2513,67.5760,292.5375,0,U,59722,999,11758,.16638E-2,.51804E-3,0
STARLINK-31766,2024-088R,2026-06-08T11:50:56.264064,15.30271725,.0000776,53.1600,78.2077,125.8331,234.2742,0,U,59723,999,11758,-.61079E-3,-.18444E-3,0
STARLINK-31836,2024-088S,2026-06-08T01:30:23.497344,15.31697914,.00013969,53.1617,79.7921,107.4049,252.7106,0,U,59724,999,11752,-.4631276E-5,-.509E-5,0
STARLINK-31820,2024-088T,2026-06-08T01:43:49.942848,15.31568065,.00018102,53.1611,79.8471,125.0039,235.1132,0,U,59725,999,11752,.91299513E-3,.27956E-3,0
STARLINK-31642,2024-088U,2026-06-08T11:14:19.138848,15.31699581,.0001215,53.1595,78.0534,88.0555,272.0586,0,U,59726,999,11758,-.12791E-4,-.762E-5,0
STARLINK-31827,2024-088V,2026-06-08T07:06:02.790432,15.31690606,.0002239,53.1604,79.1030,92.8689,267.2569,0,U,59727,999,11767,.5761E-4,.1422E-4,0
SHIYAN-23 (SY-23),2024-089A,2026-06-08T17:19:11.868096,14.87024306,.0002577,97.7765,161.6766,198.4105,161.7018,0,U,59728,999,11258,.84195E-4,.701E-5,0
STARLINK-31472,2024-090A,2026-06-07T22:39:56.528064,15.27631225,.00034217,43.0015,33.7597,282.2569,77.7900,0,U,59730,999,11724,-.69362433E-3,-.19333E-3,0
STARLINK-31817,2024-090B,2026-06-08T02:56:23.950752,15.27600014,.0000783,43.0001,32.5208,254.6411,105.4354,0,U,59731,999,11727,.11954348E-3,.3031E-4,0
STARLINK-31833,2024-090D,2026-06-08T11:33:30.901824,15.27579177,.0001242,43.0031,30.9177,279.8121,80.2590,0,U,59733,999,11732,-.14154E-4,-.652E-5,0
STARLINK-31849,2024-090E,2026-06-08T08:09:58.491648,15.27571120,.0000294,43.0053,24.6597,278.2209,81.8610,0,U,59734,999,11738,-.52236E-4,-.1698E-4,0
STARLINK-31661,2024-090F,2026-06-07T22:28:21.799488,15.27570167,.00006123,43.0078,26.7863,285.4729,74.6055,0,U,59735,999,11732,-.43687817E-4,-.1463E-4,0
STARLINK-31707,2024-090G,2026-06-07T22:34:22.955808,15.27560272,.00004697,43.0072,33.7419,284.4660,75.6139,0,U,59736,999,11724,-.60683748E-4,-.193E-4,0
STARLINK-31821,2024-090H,2026-06-07T22:51:01.733760,15.27569518,.00011852,43.0023,33.8275,267.0641,93.0075,0,U,59737,999,11724,-.48067845E-4,-.1584E-4,0
STARLINK-31819,2024-090J,2026-06-07T22:43:37.037280,15.27561520,.00010535,43.0098,33.7851,276.6001,83.4731,0,U,59738,999,11724,.63387718E-4,.1482E-4,0
