ZHIHUI TIANWANG-1 01B   
1 59706U 24087B   26158.16098286  .00000095  00000+0  00000+0 0  9992
2 59706  53.1271 170.9927 0026273 207.3026 152.5950  2.00563035 14751
STARLINK-11107 [DTC]    
1 59708U 24088A   26159.46369502  .00002074  00000+0  21981-4 0  9996
2 59708  53.1596 238.4835 0001060  88.9493 271.1646 15.69702395120514
STARLINK-11088 [DTC]    
1 59709U 24088B   26159.51765720 -.00004284  00000+0 -30531-4 0  9993
2 59709  53.1567 238.8281 0001057  69.4662 290.6469 15.69701408120535
STARLINK-11092 [DTC]    
1 59710U 24088C   26159.51274885  .00003616  00000+0  34713-4 0  9994
2 59710  53.1593 238.7938 0001011  77.1768 282.9363 15.69691910120530
STARLINK-11082 [DTC]    
1 59711U 24088D   26159.50784392  .00001954  00000+0  20979-4 0  9995
2 59711  53.1579 238.7594 0000713  69.2938 290.8156 15.69703031120538
STARLINK-11108 [DTC]    
1 59712U 24088E   26159.50294155  .00003262  00000+0  31781-4 0  9996
2 59712  53.1571 238.7246 0001084  73.9860 286.1277 15.69704786120533
STARLINK-11100 [DTC]    
1 59713U 24088F   26159.49803003  .00002077  00000+0  21996-4 0  9993
2 59713  53.1579 238.6956 0000832 121.4760 238.6339 15.69706743120533
STARLINK-11094 [DTC]    
1 59714U 24088G   26159.49313105  .00005164  00000+0  47458-4 0  9994
2 59714  53.1578 238.6696 0001183  84.1813 275.9340 15.69708675120530
STARLINK-11101 [DTC]    
1 59715U 24088H   26159.48331479  .00001874  00000+0  20326-4 0  9997
2 59715  53.1598 238.5986 0000922  85.0915 275.0208 15.69703197120535
STARLINK-11099 [DTC]    
1 59716U 24088J   26159.48821997  .00002076  00000+0  21988-4 0  9997
2 59716  53.1590 238.6296 0001045 100.2105 259.9031 15.69705727120537
STARLINK-11084 [DTC]    
1 59717U 24088K   26159.47842134 -.00000449  00000+0  11568-5 0  9990
2 59717  53.1602 238.5662 0001281  81.4576 278.6587 15.69687437120533
STARLINK-11103 [DTC]    
1 59718U 24088L   26159.47351431 -.00001956  00000+0 -11276-4 0  9996
2 59718  53.1612 238.5320 0002241  42.8165 317.3027 15.69696760120537
STARLINK-11096 [DTC]    
1 59719U 24088M   26159.52256463  .00001523  00000+0  17433-4 0  9991
2 59719  53.1586 238.8549 0000981  97.4441 262.6689 15.69694776120537
STARLINK-11095 [DTC]    
1 59720U 24088N   26159.46859841  .00002145  00000+0  22562-4 0  9995
2 59720  53.1586 238.4991 0000860 120.1479 239.9624 15.69699341120536
STARLINK-31834          
1 59721U 24088P   26159.49628284 -.00000717  00000+0 -11346-4 0  9997
2 59721  53.1635  78.2254 0001082  90.9011 269.2114 15.31698809117765
STARLINK-31843          
1 59722U 24088Q   26159.50095458  .00051804  00000+0  16638-2 0  9999
2 59722  53.1607  78.2513 0001258  67.5760 292.5375 15.31810659117586
STARLINK-31766          
1 59723U 24088R   26159.49370676 -.00018444  00000+0 -61079-3 0  9991
2 59723  53.1600  78.2077 0000776 125.8331 234.2742 15.30271725117586
STARLINK-31836          
1 59724U 24088S   26159.06277196 -.00000509  00000+0 -46313-5 0  9997
2 59724  53.1617  79.7921 0001396 107.4049 252.7106 15.31697914117526
STARLINK-31820          
1 59725U 24088T   26159.07210582  .00027956  00000+0  91300-3 0  9992
2 59725  53.1611  79.8471 0001810 125.0039 235.1132 15.31568065117526
STARLINK-31642          
1 59726U 24088U   26159.46827707 -.00000762  00000+0 -12791-4 0  9995
2 59726  53.1595  78.0534 0001215  88.0555 272.0586 15.31699581117586
STARLINK-31827          
1 59727U 24088V   26159.29586563  .00001422  00000+0  57610-4 0  9990
2 59727  53.1604  79.1030 0002239  92.8689 267.2569 15.31690606117675
SHIYAN-23 (SY-23)       
1 59728U 24089A   26159.72166514  .00000701  00000+0  84195-4 0  9997
2 59728  97.7765 161.6766 0002577 198.4105 161.7018 14.87024306112582
STARLINK-31472          
1 59730U 24090A   26158.94440426 -.00019333  00000+0 -69362-3 0  9993
2 59730  43.0015  33.7597 0003421 282.2569  77.7900 15.27631225117246
STARLINK-31817          
1 59731U 24090B   26159.12249943  .00003031  00000+0  11954-3 0  9996
2 59731  43.0001  32.5208 0000783 254.6411 105.4354 15.27600014117272
STARLINK-31833          
1 59733U 24090D   26159.48160766 -.00000652  00000+0 -14154-4 0  9996
2 59733  43.0031  30.9177 0001242 279.8121  80.2590 15.27579177117325
STARLINK-31849          
1 59734U 24090E   26159.34026032 -.00001698  00000+0 -52236-4 0  9993
2 59734  43.0053  24.6597 0000294 278.2209  81.8610 15.27571120117388
STARLINK-31661          
1 59735U 24090F   26158.93636342 -.00001463  00000+0 -43688-4 0  9990
2 59735  43.0078  26.7863 0000612 285.4729  74.6055 15.27570167117323
STARLINK-31707          
1 59736U 24090G   26158.94054347 -.00001930  00000+0 -60684-4 0  9995
2 59736  43.0072  33.7419 0000469 284.4660  75.6139 15.27560272117247
STARLINK-31821          
1 59737U 24090H   26158.95210340 -.00001584  00000+0 -48068-4 0  9991
2 59737  43.0023  33.8275 0001185 267.0641  93.0075 15.27569518117242
STARLINK-31819          
1 59738U 24090J   26158.94695645  .00001482  00000+0  63388-4 0  9993
2 59738  43.0098  33.7851 0001053 276.6001  83.4731 15.27561520117241
